{"type": "FeatureCollection", "features": [ {"type": "Feature", "properties": {"norad_id": 33492, "name": "GOSAT (IBUKI)", "group": "resource", "lat": 27.764426823589353, "lon": -85.79863372405173, "alt_km": 667.5798384284681, "timestamp": "2025-12-07T05:38:09.564648+00:00", "meta": {"OBJECT_NAME": "GOSAT (IBUKI)", "OBJECT_ID": "2009-002A", "EPOCH": "2025-12-06T14:13:08.846400", "MEAN_MOTION": 14.67536449, "ECCENTRICITY": 9.125e-05, "INCLINATION": 98.0767, "RA_OF_ASC_NODE": 89.2809, "ARG_OF_PERICENTER": 81.3926, "MEAN_ANOMALY": 278.7382, "EPHEMERIS_TYPE": 0, "CLASSIFICATION_TYPE": "U", "NORAD_CAT_ID": 33492, "ELEMENT_SET_NO": 999, "REV_AT_EPOCH": 90321, "BSTAR": 0.00032130508, "MEAN_MOTION_DOT": 1.774e-05, "MEAN_MOTION_DDOT": 0}, "tle": {"line1": "1 33492U 09002A   25340.59246350  .00001774  00000+0  32131-3 0  9991", "line2": "2 33492  98.0767  89.2809 0000912  81.3926 278.7382 14.67536449903218"}}, "geometry": {"type": "Point", "coordinates": [-85.79863372405173, 27.764426823589353]}}, {"type": "Feature", "properties": {"norad_id": 35681, "name": "DEIMOS-1", "group": "resource", "lat": 79.80310717887502, "lon": 93.1836464242381, "alt_km": 636.0882392553076, "timestamp": "2025-12-07T05:38:09.564660+00:00", "meta": {"OBJECT_NAME": "DEIMOS-1", "OBJECT_ID": "2009-041A", "EPOCH": "2025-12-06T14:36:22.252032", "MEAN_MOTION": 14.74938257, "ECCENTRICITY": 0.00026899, "INCLINATION": 97.7153, "RA_OF_ASC_NODE": 141.4978, "ARG_OF_PERICENTER": 91.6314, "MEAN_ANOMALY": 268.5204, "EPHEMERIS_TYPE": 0, "CLASSIFICATION_TYPE": "U", "NORAD_CAT_ID": 35681, "ELEMENT_SET_NO": 999, "REV_AT_EPOCH": 87849, "BSTAR": 0.00020547156, "MEAN_MOTION_DOT": 1.333e-05, "MEAN_MOTION_DDOT": 0}, "tle": {"line1": "1 35681U 09041A   25340.60859088  .00001333  00000+0  20547-3 0  9995", "line2": "2 35681  97.7153 141.4978 0002689  91.6314 268.5204 14.74938257878493"}}, "geometry": {"type": "Point", "coordinates": [93.1836464242381, 79.80310717887502]}}, {"type": "Feature", "properties": {"norad_id": 35682, "name": "DUBAISAT-1", "group": "resource", "lat": 24.811574570223403, "lon": 108.27794961258576, "alt_km": 641.4614603199925, "timestamp": "2025-12-07T05:38:09.564670+00:00", "meta": {"OBJECT_NAME": "DUBAISAT-1", "OBJECT_ID": "2009-041B", "EPOCH": "2025-12-06T14:51:56.601504", "MEAN_MOTION": 14.74577225, "ECCENTRICITY": 0.00098996, "INCLINATION": 97.979, "RA_OF_ASC_NODE": 111.3897, "ARG_OF_PERICENTER": 335.7467, "MEAN_ANOMALY": 24.3274, "EPHEMERIS_TYPE": 0, "CLASSIFICATION_TYPE": "U", "NORAD_CAT_ID": 35682, "ELEMENT_SET_NO": 999, "REV_AT_EPOCH": 87671, "BSTAR": 0.00041114879, "MEAN_MOTION_DOT": 2.69e-05, "MEAN_MOTION_DDOT": 0}, "tle": {"line1": "1 35682U 09041B   25340.61940511  .00002690  00000+0  41115-3 0  9990", "line2": "2 35682  97.9790 111.3897 0009899 335.7467  24.3274 14.74577225876712"}}, "geometry": {"type": "Point", "coordinates": [108.27794961258576, 24.811574570223403]}}, {"type": "Feature", "properties": {"norad_id": 35931, "name": "OCEANSAT-2", "group": "resource", "lat": -64.90366008383836, "lon": 144.41091437983357, "alt_km": 914.1758644395086, "timestamp": "2025-12-07T05:38:09.564681+00:00", "meta": {"OBJECT_NAME": "OCEANSAT-2", "OBJECT_ID": "2009-051A", "EPOCH": "2025-12-06T14:44:18.370464", "MEAN_MOTION": 13.99626034, "ECCENTRICITY": 0.00164578, "INCLINATION": 98.2227, "RA_OF_ASC_NODE": 341.836, "ARG_OF_PERICENTER": 60.9941, "MEAN_ANOMALY": 299.2873, "EPHEMERIS_TYPE": 0, "CLASSIFICATION_TYPE": "U", "NORAD_CAT_ID": 35931, "ELEMENT_SET_NO": 999, "REV_AT_EPOCH": 85239, "BSTAR": -7.6944124e-05, "MEAN_MOTION_DOT": -1.5e-06, "MEAN_MOTION_DDOT": 0}, "tle": {"line1": "1 35931U 09051A   25340.61410151 -.00000150  00000+0 -76944-4 0  9990", "line2": "2 35931  98.2227 341.8360 0016457  60.9941 299.2873 13.99626034852390"}}, "geometry": {"type": "Point", "coordinates": [144.41091437983357, -64.90366008383836]}}, {"type": "Feature", "properties": {"norad_id": 35946, "name": "WORLDVIEW-2 (WV-2)", "group": "resource", "lat": -25.342879584530657, "lon": 56.4460743198916, "alt_km": 772.8806197059293, "timestamp": "2025-12-07T05:38:09.564691+00:00", "meta": {"OBJECT_NAME": "WORLDVIEW-2 (WV-2)", "OBJECT_ID": "2009-055A", "EPOCH": "2025-12-06T14:43:18.516864", "MEAN_MOTION": 14.37648538, "ECCENTRICITY": 0.00054083, "INCLINATION": 98.4767, "RA_OF_ASC_NODE": 51.7832, "ARG_OF_PERICENTER": 81.6399, "MEAN_ANOMALY": 278.5401, "EPHEMERIS_TYPE": 0, "CLASSIFICATION_TYPE": "U", "NORAD_CAT_ID": 35946, "ELEMENT_SET_NO": 999, "REV_AT_EPOCH": 84797, "BSTAR": 0.00014444491, "MEAN_MOTION_DOT": 3.9e-06, "MEAN_MOTION_DDOT": 0}, "tle": {"line1": "1 35946U 09055A   25340.61340876  .00000390  00000+0  14444-3 0  9996", "line2": "2 35946  98.4767  51.7832 0005408  81.6399 278.5401 14.37648538847970"}}, "geometry": {"type": "Point", "coordinates": [56.4460743198916, -25.342879584530657]}}, {"type": "Feature", "properties": {"norad_id": 36036, "name": "SMOS", "group": "resource", "lat": -30.81109092673172, "lon": 171.44379639623546, "alt_km": 765.6671940157476, "timestamp": "2025-12-07T05:38:09.564701+00:00", "meta": {"OBJECT_NAME": "SMOS", "OBJECT_ID": "2009-059A", "EPOCH": "2025-12-06T06:25:45.772896", "MEAN_MOTION": 14.39732741, "ECCENTRICITY": 0.0001133, "INCLINATION": 98.4387, "RA_OF_ASC_NODE": 165.4122, "ARG_OF_PERICENTER": 84.8118, "MEAN_ANOMALY": 275.3199, "EPHEMERIS_TYPE": 0, "CLASSIFICATION_TYPE": "U", "NORAD_CAT_ID": 36036, "ELEMENT_SET_NO": 999, "REV_AT_EPOCH": 84569, "BSTAR": 0.00026315864, "MEAN_MOTION_DOT": 7.81e-06, "MEAN_MOTION_DDOT": 0}, "tle": {"line1": "1 36036U 09059A   25340.26789089  .00000781  00000+0  26316-3 0  9990", "line2": "2 36036  98.4387 165.4122 0001133  84.8118 275.3199 14.39732741845697"}}, "geometry": {"type": "Point", "coordinates": [171.44379639623546, -30.81109092673172]}}, {"type": "Feature", "properties": {"norad_id": 36110, "name": "YAOGAN-7", "group": "resource", "lat": 56.80627430965693, "lon": 55.472948065516405, "alt_km": 647.6338169375395, "timestamp": "2025-12-07T05:38:09.564711+00:00", "meta": {"OBJECT_NAME": "YAOGAN-7", "OBJECT_ID": "2009-069A", "EPOCH": "2025-12-06T14:27:27.337536", "MEAN_MOTION": 14.77718454, "ECCENTRICITY": 0.00235985, "INCLINATION": 98.0303, "RA_OF_ASC_NODE": 222.3811, "ARG_OF_PERICENTER": 302.1734, "MEAN_ANOMALY": 57.7188, "EPHEMERIS_TYPE": 0, "CLASSIFICATION_TYPE": "U", "NORAD_CAT_ID": 36110, "ELEMENT_SET_NO": 999, "REV_AT_EPOCH": 86118, "BSTAR": 0.00019469662, "MEAN_MOTION_DOT": 1.348e-05, "MEAN_MOTION_DDOT": 0}, "tle": {"line1": "1 36110U 09069A   25340.60239974  .00001348  00000+0  19470-3 0  9998", "line2": "2 36110  98.0303 222.3811 0023598 302.1734  57.7188 14.77718454861180"}}, "geometry": {"type": "Point", "coordinates": [55.472948065516405, 56.80627430965693]}}, {"type": "Feature", "properties": {"norad_id": 36605, "name": "TANDEM-X", "group": "resource", "lat": -82.3963121635355, "lon": 88.29993310970339, "alt_km": 517.2220142071073, "timestamp": "2025-12-07T05:38:09.564721+00:00", "meta": {"OBJECT_NAME": "TANDEM-X", "OBJECT_ID": "2010-030A", "EPOCH": "2025-12-06T14:13:48.617184", "MEAN_MOTION": 15.19146828, "ECCENTRICITY": 0.00021111, "INCLINATION": 97.4449, "RA_OF_ASC_NODE": 346.063, "ARG_OF_PERICENTER": 96.3345, "MEAN_ANOMALY": 263.813, "EPHEMERIS_TYPE": 0, "CLASSIFICATION_TYPE": "U", "NORAD_CAT_ID": 36605, "ELEMENT_SET_NO": 999, "REV_AT_EPOCH": 85740, "BSTAR": 0.00017045926, "MEAN_MOTION_DOT": 3.514e-05, "MEAN_MOTION_DDOT": 0}, "tle": {"line1": "1 36605U 10030A   25340.59292381  .00003514  00000+0  17046-3 0  9990", "line2": "2 36605  97.4449 346.0630 0002111  96.3345 263.8130 15.19146828857408"}}, "geometry": {"type": "Point", "coordinates": [88.29993310970339, -82.3963121635355]}}, {"type": "Feature", "properties": {"norad_id": 36795, "name": "CARTOSAT-2B", "group": "resource", "lat": 28.666965719935238, "lon": 26.153722281301334, "alt_km": 628.0045673565401, "timestamp": "2025-12-07T05:38:09.564731+00:00", "meta": {"OBJECT_NAME": "CARTOSAT-2B", "OBJECT_ID": "2010-035A", "EPOCH": "2025-12-06T14:53:23.714304", "MEAN_MOTION": 14.78775322, "ECCENTRICITY": 0.00129122, "INCLINATION": 97.7861, "RA_OF_ASC_NODE": 29.8494, "ARG_OF_PERICENTER": 95.6448, "MEAN_ANOMALY": 264.6236, "EPHEMERIS_TYPE": 0, "CLASSIFICATION_TYPE": "U", "NORAD_CAT_ID": 36795, "ELEMENT_SET_NO": 999, "REV_AT_EPOCH": 83139, "BSTAR": 0.00021102905, "MEAN_MOTION_DOT": 1.503e-05, "MEAN_MOTION_DDOT": 0}, "tle": {"line1": "1 36795U 10035A   25340.62041336  .00001503  00000+0  21103-3 0  9996", "line2": "2 36795  97.7861  29.8494 0012912  95.6448 264.6236 14.78775322831396"}}, "geometry": {"type": "Point", "coordinates": [26.153722281301334, 28.666965719935238]}}, {"type": "Feature", "properties": {"norad_id": 36834, "name": "YAOGAN-10", "group": "resource", "lat": -6.017766998139192, "lon": 1.936981837081146, "alt_km": 618.6646969278272, "timestamp": "2025-12-07T05:38:09.564741+00:00", "meta": {"OBJECT_NAME": "YAOGAN-10", "OBJECT_ID": "2010-038A", "EPOCH": "2025-12-06T15:37:00.472224", "MEAN_MOTION": 14.84572728, "ECCENTRICITY": 0.00015026, "INCLINATION": 97.9142, "RA_OF_ASC_NODE": 0.517, "ARG_OF_PERICENTER": 84.4933, "MEAN_ANOMALY": 29.5975, "EPHEMERIS_TYPE": 0, "CLASSIFICATION_TYPE": "U", "NORAD_CAT_ID": 36834, "ELEMENT_SET_NO": 999, "REV_AT_EPOCH": 82863, "BSTAR": 0.00040765809, "MEAN_MOTION_DOT": 3.388e-05, "MEAN_MOTION_DDOT": 0}, "tle": {"line1": "1 36834U 10038A   25340.65069991  .00003388  00000+0  40766-3 0  9992", "line2": "2 36834  97.9142   0.5170 0001502  84.4933  29.5975 14.84572728828632"}}, "geometry": {"type": "Point", "coordinates": [1.936981837081146, -6.017766998139192]}}]}